{"type": "FeatureCollection", "features": [ {"type": "Feature", "properties": {"norad_id": 43648, "name": "BEIDOU-3 M15 (C34)", "group": "gnss", "lat": -43.328269038703446, "lon": 168.9688983746375, "alt_km": 21541.69272094627, "timestamp": "2025-12-20T16:47:36.529757+00:00", "meta": {"OBJECT_NAME": "BEIDOU-3 M15 (C34)", "OBJECT_ID": "2018-078B", "EPOCH": "2025-12-19T06:30:41.361984", "MEAN_MOTION": 1.86232317, "ECCENTRICITY": 0.0003969, "INCLINATION": 54.2518, "RA_OF_ASC_NODE": 306.2933, "ARG_OF_PERICENTER": 20.1104, "MEAN_ANOMALY": 339.8954, "EPHEMERIS_TYPE": 0, "CLASSIFICATION_TYPE": "U", "NORAD_CAT_ID": 43648, "ELEMENT_SET_NO": 999, "REV_AT_EPOCH": 4882, "BSTAR": 0, "MEAN_MOTION_DOT": -7.6e-07, "MEAN_MOTION_DDOT": 0}, "tle": {"line1": "1 43648U 18078B   25353.27131206 -.00000076  00000+0  00000+0 0  9991", "line2": "2 43648  54.2518 306.2933 0003969  20.1104 339.8954  1.86232317 48829"}}, "geometry": {"type": "Point", "coordinates": [168.9688983746375, -43.328269038703446]}}, {"type": "Feature", "properties": {"norad_id": 43683, "name": "BEIDOU-3 G1 (C59)", "group": "gnss", "lat": 0.8666193290278994, "lon": 121.41644402325765, "alt_km": 35781.01805254005, "timestamp": "2025-12-20T16:47:36.529775+00:00", "meta": {"OBJECT_NAME": "BEIDOU-3 G1 (C59)", "OBJECT_ID": "2018-085A", "EPOCH": "2025-12-20T13:03:56.585088", "MEAN_MOTION": 1.00268491, "ECCENTRICITY": 0.0001588, "INCLINATION": 2.6264, "RA_OF_ASC_NODE": 102.7392, "ARG_OF_PERICENTER": 46.9334, "MEAN_ANOMALY": 275.7089, "EPHEMERIS_TYPE": 0, "CLASSIFICATION_TYPE": "U", "NORAD_CAT_ID": 43683, "ELEMENT_SET_NO": 999, "REV_AT_EPOCH": 2626, "BSTAR": 0, "MEAN_MOTION_DOT": -2.56e-06, "MEAN_MOTION_DDOT": 0}, "tle": {"line1": "1 43683U 18085A   25354.54440492 -.00000256  00000+0  00000+0 0  9999", "line2": "2 43683   2.6264 102.7392 0001588  46.9334 275.7089  1.00268491 26266"}}, "geometry": {"type": "Point", "coordinates": [121.41644402325765, 0.8666193290278994]}}, {"type": "Feature", "properties": {"norad_id": 43687, "name": "COSMOS 2529 (757)", "group": "gnss", "lat": -47.43332615809305, "lon": 50.27753853118443, "alt_km": 19118.439691321542, "timestamp": "2025-12-20T16:47:36.529797+00:00", "meta": {"OBJECT_NAME": "COSMOS 2529 (757)", "OBJECT_ID": "2018-086A", "EPOCH": "2025-12-18T12:23:46.661856", "MEAN_MOTION": 2.13102105, "ECCENTRICITY": 0.00070461, "INCLINATION": 64.2922, "RA_OF_ASC_NODE": 198.6932, "ARG_OF_PERICENTER": 253.6593, "MEAN_ANOMALY": 106.345, "EPHEMERIS_TYPE": 0, "CLASSIFICATION_TYPE": "U", "NORAD_CAT_ID": 43687, "ELEMENT_SET_NO": 999, "REV_AT_EPOCH": 5543, "BSTAR": 0, "MEAN_MOTION_DOT": 1.09e-06, "MEAN_MOTION_DDOT": 0}, "tle": {"line1": "1 43687U 18086A   25352.51651229  .00000109  00000+0  00000+0 0  9997", "line2": "2 43687  64.2922 198.6932 0007046 253.6593 106.3450  2.13102105 55434"}}, "geometry": {"type": "Point", "coordinates": [50.27753853118443, -47.43332615809305]}}, {"type": "Feature", "properties": {"norad_id": 43706, "name": "BEIDOU-3 M17 (C36)", "group": "gnss", "lat": 37.506994822693486, "lon": -25.337963528740264, "alt_km": 21540.662148874886, "timestamp": "2025-12-20T16:47:36.529815+00:00", "meta": {"OBJECT_NAME": "BEIDOU-3 M17 (C36)", "OBJECT_ID": "2018-093A", "EPOCH": "2025-12-20T12:04:20.840736", "MEAN_MOTION": 1.86228485, "ECCENTRICITY": 0.0006088, "INCLINATION": 54.1751, "RA_OF_ASC_NODE": 188.3582, "ARG_OF_PERICENTER": 307.8758, "MEAN_ANOMALY": 51.559, "EPHEMERIS_TYPE": 0, "CLASSIFICATION_TYPE": "U", "NORAD_CAT_ID": 43706, "ELEMENT_SET_NO": 999, "REV_AT_EPOCH": 4820, "BSTAR": 0, "MEAN_MOTION_DOT": 9.7e-07, "MEAN_MOTION_DDOT": 0}, "tle": {"line1": "1 43706U 18093A   25354.50301899  .00000097  00000+0  00000+0 0  9999", "line2": "2 43706  54.1751 188.3582 0006088 307.8758  51.5590  1.86228485 48203"}}, "geometry": {"type": "Point", "coordinates": [-25.337963528740264, 37.506994822693486]}}, {"type": "Feature", "properties": {"norad_id": 43707, "name": "BEIDOU-3 M18 (C37)", "group": "gnss", "lat": -34.32584392683996, "lon": 37.92465969426025, "alt_km": 21543.82942532553, "timestamp": "2025-12-20T16:47:36.529834+00:00", "meta": {"OBJECT_NAME": "BEIDOU-3 M18 (C37)", "OBJECT_ID": "2018-093B", "EPOCH": "2025-12-19T19:53:02.312736", "MEAN_MOTION": 1.86226834, "ECCENTRICITY": 0.00062874, "INCLINATION": 54.1737, "RA_OF_ASC_NODE": 188.373, "ARG_OF_PERICENTER": 353.4895, "MEAN_ANOMALY": 6.5612, "EPHEMERIS_TYPE": 0, "CLASSIFICATION_TYPE": "U", "NORAD_CAT_ID": 43707, "ELEMENT_SET_NO": 999, "REV_AT_EPOCH": 4819, "BSTAR": 0, "MEAN_MOTION_DOT": 1e-06, "MEAN_MOTION_DDOT": 0}, "tle": {"line1": "1 43707U 18093B   25353.82849899  .00000100  00000+0  00000+0 0  9996", "line2": "2 43707  54.1737 188.3730 0006287 353.4895   6.5612  1.86226834 48192"}}, "geometry": {"type": "Point", "coordinates": [37.92465969426025, -34.32584392683996]}}, {"type": "Feature", "properties": {"norad_id": 43873, "name": "GPS BIII-1  (PRN 04)", "group": "gnss", "lat": 38.983348662437564, "lon": -114.43135889636453, "alt_km": 20135.79709666734, "timestamp": "2025-12-20T16:47:36.529852+00:00", "meta": {"OBJECT_NAME": "GPS BIII-1  (PRN 04)", "OBJECT_ID": "2018-109A", "EPOCH": "2025-12-20T00:28:38.598816", "MEAN_MOTION": 2.00553953, "ECCENTRICITY": 0.00375628, "INCLINATION": 55.5707, "RA_OF_ASC_NODE": 99.2599, "ARG_OF_PERICENTER": 195.3516, "MEAN_ANOMALY": 164.4447, "EPHEMERIS_TYPE": 0, "CLASSIFICATION_TYPE": "U", "NORAD_CAT_ID": 43873, "ELEMENT_SET_NO": 999, "REV_AT_EPOCH": 5147, "BSTAR": 0, "MEAN_MOTION_DOT": -1.8e-07, "MEAN_MOTION_DDOT": 0}, "tle": {"line1": "1 43873U 18109A   25354.01989119 -.00000018  00000+0  00000+0 0  9999", "line2": "2 43873  55.5707  99.2599 0037562 195.3516 164.4447  2.00553953 51471"}}, "geometry": {"type": "Point", "coordinates": [-114.43135889636453, 38.983348662437564]}}, {"type": "Feature", "properties": {"norad_id": 44231, "name": "BEIDOU-2 G8 (C01)", "group": "gnss", "lat": 1.3325432966281083, "lon": 125.90872588731894, "alt_km": 35815.31051873544, "timestamp": "2025-12-20T16:47:36.529869+00:00", "meta": {"OBJECT_NAME": "BEIDOU-2 G8 (C01)", "OBJECT_ID": "2019-027A", "EPOCH": "2025-12-19T12:14:23.449632", "MEAN_MOTION": 1.00276563, "ECCENTRICITY": 0.0008196, "INCLINATION": 1.6785, "RA_OF_ASC_NODE": 74.7229, "ARG_OF_PERICENTER": 258.5641, "MEAN_ANOMALY": 83.1013, "EPHEMERIS_TYPE": 0, "CLASSIFICATION_TYPE": "U", "NORAD_CAT_ID": 44231, "ELEMENT_SET_NO": 999, "REV_AT_EPOCH": 2427, "BSTAR": 0, "MEAN_MOTION_DOT": -2.24e-06, "MEAN_MOTION_DDOT": 0}, "tle": {"line1": "1 44231U 19027A   25353.50999363 -.00000224  00000+0  00000+0 0  9992", "line2": "2 44231   1.6785  74.7229 0008196 258.5641  83.1013  1.00276563 24270"}}, "geometry": {"type": "Point", "coordinates": [125.90872588731894, 1.3325432966281083]}}, {"type": "Feature", "properties": {"norad_id": 44299, "name": "COSMOS 2534 (758)", "group": "gnss", "lat": 8.417483742967272, "lon": -157.29371182640344, "alt_km": 19127.39415144749, "timestamp": "2025-12-20T16:47:36.529887+00:00", "meta": {"OBJECT_NAME": "COSMOS 2534 (758)", "OBJECT_ID": "2019-030A", "EPOCH": "2025-12-18T18:30:09.690336", "MEAN_MOTION": 2.13102412, "ECCENTRICITY": 0.0008748, "INCLINATION": 64.3658, "RA_OF_ASC_NODE": 198.6898, "ARG_OF_PERICENTER": 284.2192, "MEAN_ANOMALY": 45.4012, "EPHEMERIS_TYPE": 0, "CLASSIFICATION_TYPE": "U", "NORAD_CAT_ID": 44299, "ELEMENT_SET_NO": 999, "REV_AT_EPOCH": 5107, "BSTAR": 0, "MEAN_MOTION_DOT": 1.08e-06, "MEAN_MOTION_DDOT": 0}, "tle": {"line1": "1 44299U 19030A   25352.77094549  .00000108  00000+0  00000+0 0  9990", "line2": "2 44299  64.3658 198.6898 0008748 284.2192  45.4012  2.13102412 51071"}}, "geometry": {"type": "Point", "coordinates": [-157.29371182640344, 8.417483742967272]}}, {"type": "Feature", "properties": {"norad_id": 44337, "name": "BEIDOU-3 IGSO-2 (C39)", "group": "gnss", "lat": -44.78657212403545, "lon": 116.7362525489889, "alt_km": 35816.054638833, "timestamp": "2025-12-20T16:47:36.529905+00:00", "meta": {"OBJECT_NAME": "BEIDOU-3 IGSO-2 (C39)", "OBJECT_ID": "2019-035A", "EPOCH": "2025-12-20T08:39:57.339648", "MEAN_MOTION": 1.00269066, "ECCENTRICITY": 0.0037585, "INCLINATION": 55.2282, "RA_OF_ASC_NODE": 160.4344, "ARG_OF_PERICENTER": 202.2219, "MEAN_ANOMALY": 335.9377, "EPHEMERIS_TYPE": 0, "CLASSIFICATION_TYPE": "U", "NORAD_CAT_ID": 44337, "ELEMENT_SET_NO": 999, "REV_AT_EPOCH": 2387, "BSTAR": 0, "MEAN_MOTION_DOT": -6.5e-07, "MEAN_MOTION_DDOT": 0}, "tle": {"line1": "1 44337U 19035A   25354.36108032 -.00000065  00000+0  00000+0 0  9991", "line2": "2 44337  55.2282 160.4344 0037585 202.2219 335.9377  1.00269066 23872"}}, "geometry": {"type": "Point", "coordinates": [116.7362525489889, -44.78657212403545]}}, {"type": "Feature", "properties": {"norad_id": 44506, "name": "GPS BIII-2  (PRN 18)", "group": "gnss", "lat": 22.700621854438335, "lon": -5.199034926207751, "alt_km": 20330.158861969376, "timestamp": "2025-12-20T16:47:36.529943+00:00", "meta": {"OBJECT_NAME": "GPS BIII-2  (PRN 18)", "OBJECT_ID": "2019-056A", "EPOCH": "2025-12-20T05:10:31.696032", "MEAN_MOTION": 2.00566646, "ECCENTRICITY": 0.00577304, "INCLINATION": 55.7188, "RA_OF_ASC_NODE": 338.2562, "ARG_OF_PERICENTER": 198.5398, "MEAN_ANOMALY": 199.8804, "EPHEMERIS_TYPE": 0, "CLASSIFICATION_TYPE": "U", "NORAD_CAT_ID": 44506, "ELEMENT_SET_NO": 999, "REV_AT_EPOCH": 4648, "BSTAR": 0, "MEAN_MOTION_DOT": -7.7e-07, "MEAN_MOTION_DDOT": 0}, "tle": {"line1": "1 44506U 19056A   25354.21564463 -.00000077  00000+0  00000+0 0  9993", "line2": "2 44506  55.7188 338.2562 0057730 198.5398 199.8804  2.00566646 46485"}}, "geometry": {"type": "Point", "coordinates": [-5.199034926207751, 22.700621854438335]}}]}